CTC2_L_00342016-03
1 85549U 22479ZB  26070.40846065  .00000000  00000+0  00000-0 0  9992
2 85549  55.0000 180.0000 0000000   0.0000   0.0000 13.42494874    19
CTC2_L_00342016-04
1 85550U 24397WK  26070.40846065  .00000000  00000+0  00000-0 0  9995
2 85550  55.0000 180.0000 0000000   0.0000  90.0000 13.42494874    10
CTC2_L_00342017-01
1 85551U 22234HS  26070.40846065  .00000000  00000+0  00000-0 0  9994
2 85551  55.0000 192.0000 0000000   0.0000 192.0000 13.42494874    17
CTC2_L_00342017-02
1 85552U 24025YS  26070.40846065  .00000000  00000+0  00000-0 0  9995
2 85552  55.0000 192.0000 0000000   0.0000 282.0000 13.42494874    18
CTC2_L_00342017-03
1 85553U 24270ZL  26070.40846065  .00000000  00000+0  00000-0 0  9998
2 85553  55.0000 192.0000 0000000   0.0000  12.0000 13.42494874    10
CTC2_L_00342017-04
1 85554U 26611VM  26070.40846065  .00000000  00000+0  00000-0 0  9990
2 85554  55.0000 192.0000 0000000   0.0000 102.0000 13.42494874    11
CTC2_L_00342018-01
1 85555U 22430RN  26070.40846065  .00000000  00000+0  00000-0 0  9996
2 85555  55.0000 204.0000 0000000   0.0000 204.0000 13.42494874    19
CTC2_L_00342018-02
1 85556U 24879N   26070.40846065  .00000000  00000+0  00000-0 0  9996
2 85556  55.0000 204.0000 0000000   0.0000 294.0000 13.42494874    19
CTC2_L_00342018-03
1 85557U 25284C   26070.40846065  .00000000  00000+0  00000-0 0  9998
2 85557  55.0000 204.0000 0000000   0.0000  24.0000 13.42494874    11
CTC2_L_00342018-04
1 85558U 22761YO  26070.40846065  .00000000  00000+0  00000-0 0  9996
2 85558  55.0000 204.0000 0000000   0.0000 114.0000 13.42494874    12
CTC2_L_00342019-01
1 85559U 25002WA  26070.40846065  .00000000  00000+0  00000-0 0  9998
2 85559  55.0000 216.0000 0000000   0.0000 216.0000 13.42494874    19
CTC2_L_00342019-02
1 85560U 26326HL  26070.40846065  .00000000  00000+0  00000-0 0  9990
2 85560  55.0000 216.0000 0000000   0.0000 306.0000 13.42494874    11
CTC2_L_00342019-03
1 85561U 22018TB  26070.40846065  .00000000  00000+0  00000-0 0  9995
2 85561  55.0000 216.0000 0000000   0.0000  36.0000 13.42494874    12
CTC2_L_00342019-04
1 85562U 26191QD  26070.40846065  .00000000  00000+0  00000-0 0  9992
2 85562  55.0000 216.0000 0000000   0.0000 126.0000 13.42494874    13
CTC2_L_00342020-01
1 85563U 26998CF  26070.40846065  .00000000  00000+0  00000-0 0  9998
2 85563  55.0000 228.0000 0000000   0.0000 228.0000 13.42494874    10
CTC2_L_00342020-02
1 85564U 23229EM  26070.40846065  .00000000  00000+0  00000-0 0  9993
2 85564  55.0000 228.0000 0000000   0.0000 318.0000 13.42494874    11
CTC2_L_00342020-03
1 85565U 23255IT  26070.40846065  .00000000  00000+0  00000-0 0  9993
2 85565  55.0000 228.0000 0000000   0.0000  48.0000 13.42494874    12
CTC2_L_00342020-04
1 85566U 25805EZ  26070.40846065  .00000000  00000+0  00000-0 0  9997
2 85566  55.0000 228.0000 0000000   0.0000 138.0000 13.42494874    13
CTC2_L_00342021-01
1 85567U 23598QL  26070.40846065  .00000000  00000+0  00000-0 0  9995
2 85567  55.0000 240.0000 0000000   0.0000 240.0000 13.42494874    12
CTC2_L_00342021-02
1 85568U 22218XC  26070.40846065  .00000000  00000+0  00000-0 0  9994
2 85568  55.0000 240.0000 0000000   0.0000 330.0000 13.42494874    13
CTC2_L_00342021-03
1 85569U 24766SC  26070.40846065  .00000000  00000+0  00000-0 0  9995
2 85569  55.0000 240.0000 0000000   0.0000  60.0000 13.42494874    14
CTC2_L_00342021-04
1 85570U 24724AJ  26070.40846065  .00000000  00000+0  00000-0 0  9991
2 85570  55.0000 240.0000 0000000   0.0000 150.0000 13.42494874    16
CTC2_L_00342022-01
1 85571U 22107OX  26070.40846065  .00000000  00000+0  00000-0 0  9995
2 85571  55.0000 252.0000 0000000   0.0000 252.0000 13.42494874    13
CTC2_L_00342022-02
1 85572U 23748LW  26070.40846065  .00000000  00000+0  00000-0 0  9998
2 85572  55.0000 252.0000 0000000   0.0000 342.0000 13.42494874    14
CTC2_L_00342022-03
1 85573U 22677GY  26070.40846065  .00000000  00000+0  00000-0 0  9999
2 85573  55.0000 252.0000 0000000   0.0000  72.0000 13.42494874    15
CTC2_L_00342022-04
1 85574U 26598VJ  26070.40846065  .00000000  00000+0  00000-0 0  9996
2 85574  55.0000 252.0000 0000000   0.0000 162.0000 13.42494874    16
CTC2_L_00342023-01
1 85575U 24097NB  26070.40846065  .00000000  00000+0  00000-0 0  9999
2 85575  55.0000 264.0000 0000000   0.0000 264.0000 13.42494874    13
CTC2_L_00342023-02
1 85576U 25294AU  26070.40846065  .00000000  00000+0  00000-0 0  9990
2 85576  55.0000 264.0000 0000000   0.0000 354.0000 13.42494874    14
CTC2_L_00342023-03
1 85577U 23161WM  26070.40846065  .00000000  00000+0  00000-0 0  9992
2 85577  55.0000 264.0000 0000000   0.0000  84.0000 13.42494874    15
CTC2_L_00342023-04
1 85578U 25327AM  26070.40846065  .00000000  00000+0  00000-0 0  9999
2 85578  55.0000 264.0000 0000000   0.0000 174.0000 13.42494874    16
CTC2_L_00342024-01
1 85579U 22620OE  26070.40846065  .00000000  00000+0  00000-0 0  9993
2 85579  55.0000 276.0000 0000000   0.0000 276.0000 13.42494874    13
CTC2_L_00342024-02
1 85580U 22118UQ  26070.40846065  .00000000  00000+0  00000-0 0  9997
2 85580  55.0000 276.0000 0000000   0.0000   6.0000 13.42494874    16
CTC2_L_00342024-03
1 85581U 22060GB  26070.40846065  .00000000  00000+0  00000-0 0  9994
2 85581  55.0000 276.0000 0000000   0.0000  96.0000 13.42494874    16
CTC2_L_00342024-04
1 85582U 24472JY  26070.40846065  .00000000  00000+0  00000-0 0  9994
2 85582  55.0000 276.0000 0000000   0.0000 186.0000 13.42494874    17
CTC2_L_00342025-01
1 85583U 25129CG  26070.40846065  .00000000  00000+0  00000-0 0  9995
2 85583  55.0000 288.0000 0000000   0.0000 288.0000 13.42494874    14
CTC2_L_00342025-02
1 85584U 25569PK  26070.40846065  .00000000  00000+0  00000-0 0  9994
2 85584  55.0000 288.0000 0000000   0.0000  18.0000 13.42494874    16
CTC2_L_00342025-03
1 85585U 26255KB  26070.40846065  .00000000  00000+0  00000-0 0  9998
2 85585  55.0000 288.0000 0000000   0.0000 108.0000 13.42494874    17
CTC2_L_00342025-04
1 85586U 26896ML  26070.40846065  .00000000  00000+0  00000-0 0  9990
2 85586  55.0000 288.0000 0000000   0.0000 198.0000 13.42494874    17
CTC2_L_00342026-01
1 85587U 25946IT  26070.40846065  .00000000  00000+0  00000-0 0  9996
2 85587  55.0000 300.0000 0000000   0.0000 300.0000 13.42494874    18
CTC2_L_00342026-02
1 85588U 25880LI  26070.40846065  .00000000  00000+0  00000-0 0  9994
2 85588  55.0000 300.0000 0000000   0.0000  30.0000 13.42494874    19
CTC2_L_00342026-03
1 85589U 26766UI  26070.40846065  .00000000  00000+0  00000-0 0  9999
2 85589  55.0000 300.0000 0000000   0.0000 120.0000 13.42494874    10
CTC2_L_00342026-04
1 85590U 25759KN  26070.40846065  .00000000  00000+0  00000-0 0  9992
2 85590  55.0000 300.0000 0000000   0.0000 210.0000 13.42494874    12
CTC2_L_00342027-01
1 85591U 23411CO  26070.40846065  .00000000  00000+0  00000-0 0  9996
2 85591  55.0000 312.0000 0000000   0.0000 312.0000 13.42494874    19
CTC2_L_00342027-02
1 85592U 26550FA  26070.40846065  .00000000  00000+0  00000-0 0  9994
2 85592  55.0000 312.0000 0000000   0.0000  42.0000 13.42494874    10
CTC2_L_00342027-03
1 85593U 22512MY  26070.40846065  .00000000  00000+0  00000-0 0  9999
2 85593  55.0000 312.0000 0000000   0.0000 132.0000 13.42494874    11
CTC2_L_00342027-04
1 85594U 23871XF  26070.40846065  .00000000  00000+0  00000-0 0  9999
2 85594  55.0000 312.0000 0000000   0.0000 222.0000 13.42494874    12
CTC2_L_00342028-01
1 85595U 24448TT  26070.40846065  .00000000  00000+0  00000-0 0  9991
2 85595  55.0000 324.0000 0000000   0.0000 324.0000 13.42494874    19
CTC2_L_00342028-02
1 85596U 24756YP  26070.40846065  .00000000  00000+0  00000-0 0  9994
2 85596  55.0000 324.0000 0000000   0.0000  54.0000 13.42494874    10
CTC2_L_00342028-03
1 85597U 24872GW  26070.40846065  .00000000  00000+0  00000-0 0  9994
2 85597  55.0000 324.0000 0000000   0.0000 144.0000 13.42494874    11
CTC2_L_00342028-04
1 85598U 26116EI  26070.40846065  .00000000  00000+0  00000-0 0  9998
2 85598  55.0000 324.0000 0000000   0.0000 234.0000 13.42494874    12
CTC2_L_00342029-01
1 85599U 24480MD  26070.40846065  .00000000  00000+0  00000-0 0  9991
2 85599  55.0000 336.0000 0000000   0.0000 336.0000 13.42494874    19
CTC2_L_00342029-02
1 85600U 23648CN  26070.40846065  .00000000  00000+0  00000-0 0  9999
2 85600  55.0000 336.0000 0000000   0.0000  66.0000 13.42494874    12
CTC2_L_00342029-03
1 85601U 24838RA  26070.40846065  .00000000  00000+0  00000-0 0  9992
2 85601  55.0000 336.0000 0000000   0.0000 156.0000 13.42494874    13
CTC2_L_00342029-04
1 85602U 22404PI  26070.40846065  .00000000  00000+0  00000-0 0  9990
2 85602  55.0000 336.0000 0000000   0.0000 246.0000 13.42494874    14
CTC2_L_00342030-01
1 85603U 24153QG  26070.40846065  .00000000  00000+0  00000-0 0  9994
2 85603  55.0000 348.0000 0000000   0.0000 348.0000 13.42494874    11
CTC2_L_00342030-02
1 85604U 26523YE  26070.40846065  .00000000  00000+0  00000-0 0  9998
2 85604  55.0000 348.0000 0000000   0.0000  78.0000 13.42494874    12
CTC2_L_00342030-03
1 85605U 26726GB  26070.40846065  .00000000  00000+0  00000-0 0  9994
2 85605  55.0000 348.0000 0000000   0.0000 168.0000 13.42494874    13
CTC2_L_00342030-04
1 85606U 22919BC  26070.40846065  .00000000  00000+0  00000-0 0  9995
2 85606  55.0000 348.0000 0000000   0.0000 258.0000 13.42494874    14
